$$SOE
2459580.500000000, A.D. 2022-Jan-01 00:00:00.0000, 3.368530945150054E+08, -2.746267912045705E+07, 1.123979453992337E+08,
2459587.500000000, A.D. 2022-Jan-08 00:00:00.0000, 3.392014823018360E+08, -2.021353279157965E+07, 1.059030921646737E+08,
2459594.500000000, A.D. 2022-Jan-15 00:00:00.0000, 3.411847900421008E+08, -1.294274114648252E+07, 9.929416481991352E+07,
2459601.500000000, A.D. 2022-Jan-22 00:00:00.0000, 3.427998079898863E+08, -5.658094608954638E+06, 9.257796769905241E+07,
2459608.500000000, A.D. 2022-Jan-29 00:00:00.0000, 3.440433911135156E+08, 1.632563365383405E+06, 8.576137654651950E+07,
2459615.500000000, A.D. 2022-Feb-05 00:00:00.0000, 3.449124557352885E+08, 8.921323453320075E+06, 7.885135028332840E+07,
2459622.500000000, A.D. 2022-Feb-12 00:00:00.0000, 3.454039792991558E+08, 1.620019632532451E+07, 7.185494295194028E+07,
2459629.500000000, A.D. 2022-Feb-19 00:00:00.0000, 3.455150019765873E+08, 2.346109954914586E+07, 6.477931618737604E+07,
2459636.500000000, A.D. 2022-Feb-26 00:00:00.0000, 3.452426288477342E+08, 3.069584478892171E+07, 5.763175231268612E+07,
2459643.500000000, A.D. 2022-Mar-05 00:00:00.0000, 3.445840328770925E+08, 3.789612465869969E+07, 5.041966803284787E+07,
2459650.500000000, A.D. 2022-Mar-12 00:00:00.0000, 3.435364589769116E+08, 4.505349914143234E+07, 4.315062874220955E+07,
2459657.500000000, A.D. 2022-Mar-19 00:00:00.0000, 3.420972293135553E+08, 5.215938158007438E+07, 3.583236348386541E+07,
2459664.500000000, A.D. 2022-Mar-26 00:00:00.0000, 3.402637499776496E+08, 5.920502421591389E+07, 2.847278060271113E+07,
2459671.500000000, A.D. 2022-Apr-02 00:00:00.0000, 3.380335192005206E+08, 6.618150320226327E+07, 2.107998412701200E+07,
2459678.500000000, A.D. 2022-Apr-09 00:00:00.0000, 3.354041375209706E+08, 7.307970308439589E+07, 1.366229089987437E+07,
2459685.500000000, A.D. 2022-Apr-16 00:00:00.0000, 3.323733204050744E+08, 7.989030138851950E+07, 6.228248526323721E+06,
2459692.500000000, A.D. 2022-Apr-23 00:00:00.0000, 3.289389122117759E+08, 8.660375440458208E+07, -1.213345613262698E+06,
2459699.500000000, A.D. 2022-Apr-30 00:00:00.0000, 3.250988998311313E+08, 9.321028192969675E+07, -8.653424248719156E+06,
2459706.500000000, A.D. 2022-May-07 00:00:00.0000, 3.208514292817933E+08, 9.969984901014146E+07, -1.608262940568842E+07,
2459713.500000000, A.D. 2022-May-14 00:00:00.0000, 3.161948268956076E+08, 1.060621477426815E+08, -2.349129073455610E+07,
2459720.500000000, A.D. 2022-May-21 00:00:00.0000, 3.111276233275008E+08, 1.122865799358783E+08, -3.086940270309365E+07,
2459727.500000000, A.D. 2022-May-28 00:00:00.0000, 3.056485802180635E+08, 1.183622397323178E+08, -3.820660066423981E+07,
2459734.500000000, A.D. 2022-Jun-04 00:00:00.0000, 2.997567201289092E+08, 1.242778959594177E+08, -4.549213583901172E+07,
2459741.500000000, A.D. 2022-Jun-11 00:00:00.0000, 2.934513602782160E+08, 1.300219743173136E+08, -5.271484923260774E+07,
2459748.500000000, A.D. 2022-Jun-18 00:00:00.0000, 2.867321505416597E+08, 1.355825395538249E+08, -5.986314451219343E+07,
2459755.500000000, A.D. 2022-Jun-25 00:00:00.0000, 2.795991162213042E+08, 1.409472777640547E+08, -6.692495990463720E+07,
2459762.500000000, A.D. 2022-Jul-02 00:00:00.0000, 2.720527062362073E+08, 1.461034789572226E+08, -7.388773921660456E+07,
2459769.500000000, A.D. 2022-Jul-09 00:00:00.0000, 2.640938476875730E+08, 1.510380203203169E+08, -8.073840211800602E+07,
2459776.500000000, A.D. 2022-Jul-16 00:00:00.0000, 2.557240073411139E+08, 1.557373515750030E+08, -8.746331375134790E+07,
2459783.500000000, A.D. 2022-Jul-23 00:00:00.0000, 2.469452584716067E+08, 1.601874829194323E+08, -9.404825366639379E+07,
2459790.500000000, A.D. 2022-Jul-30 00:00:00.0000, 2.377603538822359E+08, 1.643739727294224E+08, -1.004783846602128E+08,
2459797.500000000, A.D. 2022-Aug-06 00:00:00.0000, 2.281728094937666E+08, 1.682819162806228E+08, -1.067382222033493E+08,
2459804.500000000, A.D. 2022-Aug-13 00:00:00.0000, 2.181869985053242E+08, 1.718959389642497E+08, -1.128116046609908E+08,
2459811.500000000, A.D. 2022-Aug-20 00:00:00.0000, 2.078082554065755E+08, 1.752001943519393E+08, -1.186816648436537E+08,
2459818.500000000, A.D. 2022-Aug-27 00:00:00.0000, 1.970429907705643E+08, 1.781783674081153E+08, -1.243308037447778E+08,
2459825.500000000, A.D. 2022-Sep-03 00:00:00.0000, 1.858988179265298E+08, 1.808136839567617E+08, -1.297406674741951E+08,
2459832.500000000, A.D. 2022-Sep-10 00:00:00.0000, 1.743846924141996E+08, 1.830889278627010E+08, -1.348921285921712E+08,
2459839.500000000, A.D. 2022-Sep-17 00:00:00.0000, 1.625110649767029E+08, 1.849864676066638E+08, -1.397652733051353E+08,
2459846.500000000, A.D. 2022-Sep-24 00:00:00.0000, 1.502900487370133E+08, 1.864882941551857E+08, -1.443393962924206E+08,
2459853.500000000, A.D. 2022-Oct-01 00:00:00.0000, 1.377356011614942E+08, 1.875760723499578E+08, -1.485930052934905E+08,
2459860.500000000, A.D. 2022-Oct-08 00:00:00.0000, 1.248637212631645E+08, 1.882312088961875E+08, -1.525038379471774E+08,
2459867.500000000, A.D. 2022-Oct-15 00:00:00.0000, 1.116926607137838E+08, 1.884349410177587E+08, -1.560488936171482E+08,
2459874.500000000, A.D. 2022-Oct-22 00:00:00.0000, 9.824314567068280E+07, 1.881684472832173E+08, -1.592044835057658E+08,
2459881.500000000, A.D. 2022-Oct-29 00:00:00.0000, 8.453861001389527E+07, 1.874129815007207E+08, -1.619463033658414E+08,
2459888.500000000, A.D. 2022-Nov-05 00:00:00.0000, 7.060543929297437E+07, 1.861500361261449E+08, -1.642495331316733E+08,
2459895.500000000, A.D. 2022-Nov-12 00:00:00.0000, 5.647321934321680E+07, 1.843615402723328E+08, -1.660889679620626E+08,
2459902.500000000, A.D. 2022-Nov-19 00:00:00.0000, 4.217498321702025E+07, 1.820300951589066E+08, -1.674391858448327E+08,
2459909.500000000, A.D. 2022-Nov-26 00:00:00.0000, 2.774744920338650E+07, 1.791392501361161E+08, -1.682747571732033E+08,
2459916.500000000, A.D. 2022-Dec-03 00:00:00.0000, 1.323124046140887E+07, 1.756738222209750E+08, -1.685705016431997E+08,
2459923.500000000, A.D. 2022-Dec-10 00:00:00.0000, -1.328925736843402E+06, 1.716202611186010E+08, -1.683017974463253E+08,
2459930.500000000, A.D. 2022-Dec-17 00:00:00.0000, -1.588409376227326E+07, 1.669670601420011E+08, -1.674449469064819E+08,
2459937.500000000, A.D. 2022-Dec-24 00:00:00.0000, -3.038098751371603E+07, 1.617052112630637E+08, -1.659776012897241E+08,
2459944.500000000, A.D. 2022-Dec-31 00:00:00.0000, -4.476200971585569E+07, 1.558286998535441E+08, -1.638792453480597E+08,
2459951.500000000, A.D. 2023-Jan-07 00:00:00.0000, -5.896534402486865E+07, 1.493350319329893E+08, -1.611317390280640E+08,
2459958.500000000, A.D. 2023-Jan-14 00:00:00.0000, -7.292518435229978E+07, 1.422257819633079E+08, -1.577199096450461E+08,
2459965.500000000, A.D. 2023-Jan-21 00:00:00.0000, -8.657211398047112E+07, 1.345071406807485E+08, -1.536321833221307E+08,
2459972.500000000, A.D. 2023-Jan-28 00:00:00.0000, -9.983365027140337E+07, 1.261904402618664E+08, -1.488612389431491E+08,
2459979.500000000, A.D. 2023-Feb-04 00:00:00.0000, -1.126349696995033E+08, 1.172926323386543E+08, -1.434046611262757E+08,
2459986.500000000, A.D. 2023-Feb-11 00:00:00.0000, -1.248998217036965E+08, 1.078366869721698E+08, -1.372655627665506E+08,
2459993.500000000, A.D. 2023-Feb-18 00:00:00.0000, -1.365516273738406E+08, 9.785187746601507E+07, -1.304531426171177E+08,
2460000.500000000, A.D. 2023-Feb-25 00:00:00.0000, -1.475147452809249E+08, 8.737391638701688E+07, -1.229831397847133E+08,
2460007.500000000, A.D. 2023-Mar-04 00:00:00.0000, -1.577158717322029E+08, 7.644491136255994E+07, -1.148781460884754E+08,
2460014.500000000, A.D. 2023-Mar-11 00:00:00.0000, -1.670855272028015E+08, 6.511311594287817E+07, -1.061677398557967E+08,
2460021.500000000, A.D. 2023-Mar-18 00:00:00.0000, -1.755595665364721E+08, 5.343246129572660E+07, -9.688841143841009E+07,
2460028.500000000, A.D. 2023-Mar-25 00:00:00.0000, -1.830806398069097E+08, 4.146186830354217E+07, -8.708326154957798E+07,
2460035.500000000, A.D. 2023-Apr-01 00:00:00.0000, -1.895995255847225E+08, 2.926435596432258E+07, -7.680146777014491E+07,
2460042.500000000, A.D. 2023-Apr-08 00:00:00.0000, -1.950762615662833E+08, 1.690597905140286E+07, -6.609753081391976E+07,
2460049.500000000, A.D. 2023-Apr-15 00:00:00.0000, -1.994810090525200E+08, 4.454640144567844E+06, -5.503032890295739E+07,
2460056.500000000, A.D. 2023-Apr-22 00:00:00.0000, -2.027946004649880E+08, -8.021169999919914E+06, -4.366202412786819E+07,
2460063.500000000, A.D. 2023-Apr-29 00:00:00.0000, -2.050087402759131E+08, -2.045363882955209E+07, -3.205687553351000E+07,
2460070.500000000, A.D. 2023-May-06 00:00:00.0000, -2.061258589296038E+08, -3.277684104200798E+07, -2.028001917593648E+07,
2460077.500000000, A.D. 2023-May-13 00:00:00.0000, -2.061586427994527E+08, -4.492783520870587E+07, -8.396275607401296E+06,
2460084.500000000, A.D. 2023-May-20 00:00:00.0000, -2.051292828917220E+08, -5.684760365686102E+07, 3.530960415068928E+06,
2460091.500000000, A.D. 2023-May-27 00:00:00.0000, -2.030685001777884E+08, -6.848180505410911E+07, 1.544070356068642E+07,
2460098.500000000, A.D. 2023-Jun-03 00:00:00.0000, -2.000144136803677E+08, -7.978132434982458E+07, 2.727520355600395E+07,
2460105.500000000, A.D. 2023-Jun-10 00:00:00.0000, -1.960113186193901E+08, -9.070261940606007E+07, 3.898059522431943E+07,
2460112.500000000, A.D. 2023-Jun-17 00:00:00.0000, -1.911084375995046E+08, -1.012078765333366E+08, 5.050736821179190E+07,
2460119.500000000, A.D. 2023-Jun-24 00:00:00.0000, -1.853586995976894E+08, -1.112649966264512E+08, 6.181066306652550E+07,
2460126.500000000, A.D. 2023-Jul-01 00:00:00.0000, -1.788175905716404E+08, -1.208474384284768E+08, 7.285040943186274E+07,
2460133.500000000, A.D. 2023-Jul-08 00:00:00.0000, -1.715421089326048E+08, -1.299339478408233E+08, 8.359132804934409E+07,
2460140.500000000, A.D. 2023-Jul-15 00:00:00.0000, -1.635898467714137E+08, -1.385082058197370E+08, 9.400282069520321E+07,
2460147.500000000, A.D. 2023-Jul-22 00:00:00.0000, -1.550182025824828E+08, -1.465584236048428E+08, 1.040587723835285E+08,
$$EOE